{
  "norad_id": 60739,
  "name": "STARLINK-32235",
  "history": [
    {
      "epoch": "2026-03-28T15:58:41.911104",
      "apogee_km": 476.27890715867215,
      "perigee_km": 474.16012345839954,
      "latitude_deg": -45.15497854242983,
      "longitude_deg": -42.1867654400412,
      "semi_major_axis_km": 6853.356515308536,
      "eccentricity": 0.00015458,
      "inclination_deg": 53.1612,
      "raan_deg": 180.4644,
      "arg_perigee_deg": 80.7178,
      "mean_anomaly_deg": 279.3998,
      "mean_motion_rev_day": 15.30198511
    }
  ]
}